NORAD_CAT_ID,OBJECT_NAME,OBJECT_TYPE,EPOCH,MEAN_MOTION,ECCENTRICITY,INCLINATION,RA_OF_ASC_NODE,ARG_OF_PERICENTER,MEAN_ANOMALY,BSTAR,MEAN_MOTION_DOT,MEAN_MOTION_DDOT,TLE_LINE0,TLE_LINE1,TLE_LINE2,SEMIMAJOR_AXIS,PERIOD,APOGEE,PERIGEE,DECAYED
53274.0,STARLINK-4050,PAYLOAD,2024-03-09 19:22:50,15.08838727,0.0002299,53.2152,220.6865,80.4133,279.7118,0.0001015,1.327e-05,0.0,0 STARLINK-4050,1 53274U 22086AJ  24069.80752360  .00001327  00000-0  10150-3 0  9994,2 53274  53.2152 220.6865 0002299  80.4133 279.7118 15.08838727 90835,6917.884,95.438,541.34,538.159,0.0
53274.0,STARLINK-4050,PAYLOAD,2024-03-10 03:19:45,15.08848011,0.0001728,53.215,219.1999,81.4958,278.623,0.00025715,3.808e-05,0.0,0 STARLINK-4050,1 53274U 22086AJ  24070.13871802  .00003808  00000-0  25715-3 0  9994,2 53274  53.2150 219.1999 0001728  81.4958 278.6230 15.08848011 90881,6917.856,95.437,540.916,538.525,0.0
53274.0,STARLINK-4050,PAYLOAD,2024-03-10 09:41:17,15.08849163,0.000281,53.2068,218.007,88.7607,271.3707,0.00020751,3.016e-05,0.0,0 STARLINK-4050,1 53274U 22086AJ  24070.40368037  .00003016  00000-0  20751-3 0  9991,2 53274  53.2068 218.0070 0002810  88.7607 271.3707 15.08849163 91105,6917.852,95.437,541.661,537.773,0.0
53274.0,STARLINK-4050,PAYLOAD,2024-03-10 19:13:37,15.08837729,0.0001996,53.2109,216.2245,86.5321,273.59,-1.916e-05,-5.93e-06,0.0,0 STARLINK-4050,1 53274U 22086AJ  24070.80112318 -.00000593  00000-0 -19160-4 0  9996,2 53274  53.2109 216.2245 0001996  86.5321 273.5900 15.08837729 90987,6917.887,95.438,541.133,538.372,0.0
53274.0,STARLINK-4050,PAYLOAD,2024-03-12 12:33:38,15.08841599,0.0001499,53.2135,208.4913,97.3643,262.7519,0.00023099,3.39e-05,0.0,0 STARLINK-4050,1 53274U 22086AJ  24072.52336497  .00003390  00000-0  23099-3 0  9994,2 53274  53.2135 208.4913 0001499  97.3643 262.7519 15.08841599 91242,6917.876,95.437,540.777,538.704,0.0
53274.0,STARLINK-4050,PAYLOAD,2024-03-13 12:24:25,15.0884587,0.000148,53.2156,204.0315,95.3284,264.7877,0.00018218,2.613e-05,0.0,0 STARLINK-4050,1 53274U 22086AJ  24073.51696198  .00002613  00000-0  18218-3 0  9995,2 53274  53.2156 204.0315 0001480  95.3284 264.7877 15.08845870 91573,6917.862,95.437,540.751,538.704,0.0
53274.0,STARLINK-4050,PAYLOAD,2024-03-13 18:45:57,15.08849117,0.0001497,53.2148,202.8448,85.931,274.1853,0.00021755,3.177e-05,0.0,0 STARLINK-4050,1 53274U 22086AJ  24073.78192002  .00003177  00000-0  21755-3 0  9995,2 53274  53.2148 202.8448 0001497  85.9310 274.1853 15.08849117 91432,6917.853,95.437,540.753,538.682,0.0
53274.0,STARLINK-4050,PAYLOAD,2024-03-14 12:15:12,15.0883813,0.0001294,53.2151,199.5697,91.1329,268.9811,2.5173e-05,1.13e-06,0.0,0 STARLINK-4050,1 53274U 22086AJ  24074.51056472  .00000113  00000-0  25173-4 0  9993,2 53274  53.2151 199.5697 0001294  91.1329 268.9811 15.08838130 91548,6917.886,95.438,540.646,538.856,0.0
53274.0,STARLINK-4050,PAYLOAD,2024-03-15 18:27:32,15.0884141,0.0001843,53.2166,193.9201,118.947,241.1707,6.9195e-05,8.13e-06,0.0,0 STARLINK-4050,1 53274U 22086AJ  24075.76912389  .00000813  00000-0  69195-4 0  9998,2 53274  53.2166 193.9201 0001843 118.9470 241.1707 15.08841410 91731,6917.876,95.437,541.016,538.466,0.0
53274.0,STARLINK-4050,PAYLOAD,2024-03-16 11:56:47,15.08832194,0.0002763,53.2159,190.6477,140.2688,219.8507,7.3895e-05,8.88e-06,0.0,0 STARLINK-4050,1 53274U 22086AJ  24076.49777042  .00000888  00000-0  73895-4 0  9998,2 53274  53.2159 190.6477 0002763 140.2688 219.8507 15.08832194 91844,6917.904,95.438,541.681,537.858,0.0
53274.0,STARLINK-4050,PAYLOAD,2024-03-16 13:32:10,15.08829985,0.0001566,53.2159,190.3504,119.6209,240.4939,4.6753e-05,4.56e-06,0.0,0 STARLINK-4050,1 53274U 22086AJ  24076.56401392  .00000456  00000-0  46753-4 0  9992,2 53274  53.2159 190.3504 0001566 119.6209 240.4939 15.08829985 92036,6917.911,95.438,540.859,538.693,0.0
53274.0,STARLINK-4050,PAYLOAD,2024-03-16 16:42:57,15.08825378,0.0001648,53.217,189.7572,109.2136,250.9035,-1.2464e-05,-4.86e-06,0.0,0 STARLINK-4050,1 53274U 22086AJ  24076.69649887 -.00000486  00000-0 -12464-4 0  9996,2 53274  53.2170 189.7572 0001648 109.2136 250.9035 15.08825378 91877,6917.925,95.438,540.93,538.65,0.0
53274.0,STARLINK-4050,PAYLOAD,2024-03-17 11:47:34,15.08842691,0.000136,53.2167,186.1942,112.198,247.9156,0.00017955,2.571e-05,0.0,0 STARLINK-4050,1 53274U 22086AJ  24077.49137042  .00002571  00000-0  17955-3 0  9994,2 53274  53.2167 186.1942 0001360 112.1980 247.9156 15.08842691 91996,6917.872,95.437,540.678,538.796,0.0
53274.0,STARLINK-4050,PAYLOAD,2024-03-17 14:58:20,15.08852138,0.0001376,53.2164,185.6002,86.1272,273.9877,0.0001975,2.858e-05,0.0,0 STARLINK-4050,1 53274U 22086AJ  24077.62384858  .00002858  00000-0  19750-3 0  9991,2 53274  53.2164 185.6002 0001376  86.1272 273.9877 15.08852138 92194,6917.843,95.437,540.66,538.756,0.0
53274.0,STARLINK-4050,PAYLOAD,2024-03-18 11:38:21,15.08845289,0.0001508,53.2156,181.7341,88.8776,271.2389,0.00025467,3.768e-05,0.0,0 STARLINK-4050,1 53274U 22086AJ  24078.48497125  .00003768  00000-0  25467-3 0  9991,2 53274  53.2156 181.7341 0001508  88.8776 271.2389 15.08845289 92326,6917.864,95.437,540.772,538.686,0.0
53274.0,STARLINK-4050,PAYLOAD,2024-03-19 11:29:08,15.08848104,0.0001468,53.2154,177.27,89.285,270.831,-1.2823e-05,-4.92e-06,0.0,0 STARLINK-4050,1 53274U 22086AJ  24079.47856682 -.00000492  00000-0 -12823-4 0  9994,2 53274  53.2154 177.2700 0001468  89.2850 270.8310 15.08848104 92470,6917.856,95.437,540.736,538.705,0.0
53274.0,STARLINK-4050,PAYLOAD,2024-03-19 13:04:31,15.08850721,0.0001559,53.2174,176.9765,85.7849,274.3321,2.0626e-05,4e-07,0.0,0 STARLINK-4050,1 53274U 22086AJ  24079.54480688  .00000040  00000-0  20626-4 0  9998,2 53274  53.2174 176.9765 0001559  85.7849 274.3321 15.08850721 92300,6917.848,95.437,540.791,538.634,0.0
53274.0,STARLINK-4050,PAYLOAD,2024-03-20 09:44:33,15.08822072,0.0001439,53.2172,173.1074,41.1226,318.9875,-5.9628e-05,-1.236e-05,0.0,0 STARLINK-4050,1 53274U 22086AJ  24080.40594546 -.00001236  00000-0 -59628-4 0  9998,2 53274  53.2172 173.1074 0001439  41.1226 318.9875 15.08822072 92433,6917.935,95.439,540.796,538.805,0.0
53274.0,STARLINK-4050,PAYLOAD,2024-03-20 11:19:56,15.08823911,0.0001406,53.2169,172.8095,90.9773,269.138,-5.0755e-05,-1.095e-05,0.0,0 STARLINK-4050,1 53274U 22086AJ  24080.47218371 -.00001095  00000-0 -50755-4 0  9999,2 53274  53.2169 172.8095 0001406  90.9773 269.1380 15.08823911 92623,6917.93,95.439,540.767,538.822,0.0
53274.0,STARLINK-4050,PAYLOAD,2024-03-20 22:27:38,15.08835771,0.000127,53.2175,170.7281,89.8254,270.2884,6.963e-05,8.2e-06,0.0,0 STARLINK-4050,1 53274U 22086AJ  24080.93585772  .00000820  00000-0  69630-4 0  9997,2 53274  53.2175 170.7281 0001270  89.8254 270.2884 15.08835771 92690,6917.893,95.438,540.637,538.88,0.0
53274.0,STARLINK-4050,PAYLOAD,2024-03-21 12:46:05,15.08850486,0.0001274,53.2152,168.055,89.9608,270.153,0.00017629,2.52e-05,0.0,0 STARLINK-4050,1 53274U 22086AJ  24081.53201038  .00002520  00000-0  17629-3 0  9993,2 53274  53.2152 168.0550 0001274  89.9608 270.1530 15.08850486 92600,6917.848,95.437,540.595,538.832,0.0
53274.0,STARLINK-4050,PAYLOAD,2024-03-22 12:36:52,15.08842698,0.0001328,53.2152,163.5955,91.0987,269.0157,0.00030208,4.523e-05,0.0,0 STARLINK-4050,1 53274U 22086AJ  24082.52561136  .00004523  00000-0  30208-3 0  9994,2 53274  53.2152 163.5955 0001328  91.0987 269.0157 15.08842698 92757,6917.872,95.437,540.656,538.818,0.0
53274.0,STARLINK-4050,PAYLOAD,2024-03-23 12:27:40,15.08837301,0.0001343,53.2166,159.129,106.9713,253.1427,-1.5483e-05,-5.34e-06,0.0,0 STARLINK-4050,1 53274U 22086AJ  24083.51921911 -.00000534  00000-0 -15483-4 0  9994,2 53274  53.2166 159.1290 0001343 106.9713 253.1427 15.08837301 92901,6917.889,95.438,540.683,538.825,0.0
53274.0,STARLINK-4050,PAYLOAD,2024-03-23 14:03:03,15.08837916,0.0001404,53.2167,158.8317,107.6769,252.4376,-2.7007e-05,-7.18e-06,0.0,0 STARLINK-4050,1 53274U 22086AJ  24083.58545916 -.00000718  00000-0 -27007-4 0  9997,2 53274  53.2167 158.8317 0001404 107.6769 252.4376 15.08837916 93093,6917.887,95.438,540.723,538.78,0.0
53274.0,STARLINK-4050,PAYLOAD,2024-03-24 12:18:26,15.0885004,0.0001627,53.2177,154.6728,105.2922,254.825,0.00019194,2.769e-05,0.0,0 STARLINK-4050,1 53274U 22086AJ  24084.51280894  .00002769  00000-0  19194-3 0  9995,2 53274  53.2177 154.6728 0001627 105.2922 254.8250 15.08850040 93052,6917.85,95.437,540.84,538.589,0.0
53274.0,STARLINK-4050,PAYLOAD,2024-03-24 13:53:49,15.08855652,0.0001509,53.2168,154.3712,120.4464,239.6678,0.00038092,5.782e-05,0.0,0 STARLINK-4050,1 53274U 22086AJ  24084.57904744  .00005782  00000-0  38092-3 0  9994,2 53274  53.2168 154.3712 0001509 120.4464 239.6678 15.08855652 93241,6917.833,95.437,540.741,538.654,0.0
53274.0,STARLINK-4050,PAYLOAD,2024-03-24 21:50:45,15.08861562,0.000147,53.2162,152.884,104.262,255.8535,0.00047966,7.359e-05,0.0,0 STARLINK-4050,1 53274U 22086AJ  24084.91024567  .00007359  00000-0  47966-3 0  9990,2 53274  53.2162 152.8840 0001470 104.2620 255.8535 15.08861562 93295,6917.814,95.436,540.696,538.663,0.0
53274.0,STARLINK-4050,PAYLOAD,2024-03-25 04:12:19,15.08816043,0.0001213,53.217,151.6996,92.6794,267.4337,-0.00011838,-2.17e-05,0.0,0 STARLINK-4050,1 53274U 22086AJ  24085.17522656 -.00002170  00000-0 -11838-3 0  9998,2 53274  53.2170 151.6996 0001213  92.6794 267.4337 15.08816043 93158,6917.954,95.439,540.658,538.979,0.0
53274.0,STARLINK-4050,PAYLOAD,2024-03-25 10:33:51,15.088247,9.59e-05,53.2155,150.5081,110.5639,249.5456,4.8358e-06,-2.11e-06,0.0,0 STARLINK-4050,1 53274U 22086AJ  24085.44018260 -.00000211  00000-0  48358-5 0  9991,2 53274  53.2155 150.5081 0000959 110.5639 249.5456 15.08824700 93194,6917.927,95.439,540.456,539.129,0.0
53274.0,STARLINK-4050,PAYLOAD,2024-03-25 21:41:32,15.08854205,0.0001129,53.2161,148.4269,96.5342,263.5779,0.00038637,5.869e-05,0.0,0 STARLINK-4050,1 53274U 22086AJ  24085.90385092  .00005869  00000-0  38637-3 0  9992,2 53274  53.2161 148.4269 0001129  96.5342 263.5779 15.08854205 93444,6917.837,95.437,540.483,538.921,0.0
